start=new Date('2023-06-08T00:00:00.000Z').valueOf();
sats=[{"RA_OF_ASC_NODE":"247.8579","PERIOD":"95.590","ELEMENT_SET_NO":"999","CENTER_NAME":"EARTH","REF_FRAME":"TEME","SITE":"AFETR","TIME_SYSTEM":"UTC","EPHEMERIS_TYPE":"0","OBJECT_TYPE":"PAYLOAD","COUNTRY_CODE":"US","TLE_LINE1":"1 47653U 21012AK  23158.66053876  .00017122  00000-0  11644-2 0  9992","OBJECT_NAME":"STARLINK-2037","NORAD_CAT_ID":"47653","TLE_LINE2":"2 47653  53.0539 247.8579 0001247  78.9588 281.1541 15.06436177128624","MEAN_MOTION_DDOT":"0.0000000000000","SEMIMAJOR_AXIS":"6925.238","CLASSIFICATION_TYPE":"U","LAUNCH_DATE":"2021-02-16","ARG_OF_PERICENTER":"78.9588","APOAPSIS":"547.966","MEAN_MOTION_DOT":"0.00017122","MEAN_MOTION":"15.06436177","RCS_SIZE":"LARGE","FILE":"3927436","MEAN_ELEMENT_THEORY":"SGP4","OBJECT_ID":"2021-012AK","DECAY_DATE":null,"EPOCH":"2023-06-07T15:51:10.548864","ECCENTRICITY":"0.00012470","GP_ID":"233430409","PERIAPSIS":"546.239","INCLINATION":"53.0539","MEAN_ANOMALY":"281.1541","REV_AT_EPOCH":"12862","BSTAR":"0.00116440000000"},{"BSTAR":"0.00137400000000","REV_AT_EPOCH":"12837","INCLINATION":"53.0543","PERIAPSIS":"546.326","MEAN_ANOMALY":"285.4978","GP_ID":"233430159","ECCENTRICITY":"0.00010650","EPOCH":"2023-06-07T19:15:30.801312","DECAY_DATE":null,"OBJECT_ID":"2021-012AL","MEAN_ELEMENT_THEORY":"SGP4","RCS_SIZE":"LARGE","FILE":"3927436","MEAN_MOTION":"15.06448923","MEAN_MOTION_DOT":"0.00020270","APOAPSIS":"547.801","LAUNCH_DATE":"2021-02-16","ARG_OF_PERICENTER":"74.6129","TLE_LINE2":"2 47654  53.0543 267.2212 0001065  74.6129 285.4978 15.06448923128377","SEMIMAJOR_AXIS":"6925.199","CLASSIFICATION_TYPE":"U","MEAN_MOTION_DDOT":"0.0000000000000","OBJECT_NAME":"STARLINK-2038","NORAD_CAT_ID":"47654","TLE_LINE1":"1 47654U 21012AL  23158.80243983  .00020270  00000-0  13740-2 0  9996","COUNTRY_CODE":"US","OBJECT_TYPE":"PAYLOAD","EPHEMERIS_TYPE":"0","SITE":"AFETR","TIME_SYSTEM":"UTC","REF_FRAME":"TEME","CENTER_NAME":"EARTH","PERIOD":"95.589","ELEMENT_SET_NO":"999","RA_OF_ASC_NODE":"267.2212"},{"REV_AT_EPOCH":"12837","PERIAPSIS":"546.384","INCLINATION":"53.0537","MEAN_ANOMALY":"288.0799","BSTAR":"0.00160530000000","EPOCH":"2023-06-07T19:04:53.785344","GP_ID":"233430911","ECCENTRICITY":"0.00010180","OBJECT_ID":"2021-012AM","MEAN_ELEMENT_THEORY":"SGP4","DECAY_DATE":null,"MEAN_MOTION_DOT":"0.00023737","APOAPSIS":"547.794","FILE":"3927436","RCS_SIZE":"LARGE","MEAN_MOTION":"15.06440635","TLE_LINE1":"1 47655U 21012AM  23158.79506696  .00023737  00000-0  16053-2 0  9999","COUNTRY_CODE":"US","ARG_OF_PERICENTER":"72.0301","LAUNCH_DATE":"2021-02-16","SEMIMAJOR_AXIS":"6925.224","TLE_LINE2":"2 47655  53.0537 267.2545 0001018  72.0301 288.0799 15.06440635128374","CLASSIFICATION_TYPE":"U","MEAN_MOTION_DDOT":"0.0000000000000","NORAD_CAT_ID":"47655","OBJECT_NAME":"STARLINK-2039","REF_FRAME":"TEME","OBJECT_TYPE":"PAYLOAD","EPHEMERIS_TYPE":"0","SITE":"AFETR","TIME_SYSTEM":"UTC","PERIOD":"95.590","ELEMENT_SET_NO":"999","RA_OF_ASC_NODE":"267.2545","CENTER_NAME":"EARTH"},{"RA_OF_ASC_NODE":"247.7755","ELEMENT_SET_NO":"999","PERIOD":"95.591","CENTER_NAME":"EARTH","REF_FRAME":"TEME","OBJECT_TYPE":"PAYLOAD","EPHEMERIS_TYPE":"0","SITE":"AFETR","TIME_SYSTEM":"UTC","TLE_LINE1":"1 47656U 21012AN  23158.67897352  .00015853  00000-0  10802-2 0  9995","COUNTRY_CODE":"US","SEMIMAJOR_AXIS":"6925.286","TLE_LINE2":"2 47656  53.0528 247.7755 0001090  78.4797 281.6314 15.06420335128636","MEAN_MOTION_DDOT":"0.0000000000000","CLASSIFICATION_TYPE":"U","ARG_OF_PERICENTER":"78.4797","LAUNCH_DATE":"2021-02-16","NORAD_CAT_ID":"47656","OBJECT_NAME":"STARLINK-2040","APOAPSIS":"547.906","MEAN_MOTION_DOT":"0.00015853","FILE":"3927436","RCS_SIZE":"LARGE","MEAN_MOTION":"15.06420335","OBJECT_ID":"2021-012AN","MEAN_ELEMENT_THEORY":"SGP4","DECAY_DATE":null,"EPOCH":"2023-06-07T16:17:43.312128","GP_ID":"233431661","ECCENTRICITY":"0.00010900","INCLINATION":"53.0528","PERIAPSIS":"546.396","MEAN_ANOMALY":"281.6314","REV_AT_EPOCH":"12863","BSTAR":"0.00108020000000"},{"RCS_SIZE":"LARGE","FILE":"3927436","MEAN_MOTION":"15.06441828","MEAN_MOTION_DOT":"0.00025299","APOAPSIS":"547.714","DECAY_DATE":null,"OBJECT_ID":"2021-012AP","MEAN_ELEMENT_THEORY":"SGP4","GP_ID":"233429910","ECCENTRICITY":"0.00009080","EPOCH":"2023-06-07T19:36:44.789184","BSTAR":"0.00170930000000","REV_AT_EPOCH":"12837","MEAN_ANOMALY":"282.5591","PERIAPSIS":"546.457","INCLINATION":"53.0527","CENTER_NAME":"EARTH","ELEMENT_SET_NO":"999","PERIOD":"95.589","RA_OF_ASC_NODE":"267.1545","OBJECT_TYPE":"PAYLOAD","EPHEMERIS_TYPE":"0","SITE":"AFETR","TIME_SYSTEM":"UTC","REF_FRAME":"TEME","ARG_OF_PERICENTER":"77.5500","LAUNCH_DATE":"2021-02-16","TLE_LINE2":"2 47657  53.0527 267.1545 0000908  77.5500 282.5591 15.06441828128376","CLASSIFICATION_TYPE":"U","SEMIMAJOR_AXIS":"6925.220","MEAN_MOTION_DDOT":"0.0000000000000","NORAD_CAT_ID":"47657","OBJECT_NAME":"STARLINK-2041","TLE_LINE1":"1 47657U 21012AP  23158.81718506  .00025299  00000-0  17093-2 0  9999","COUNTRY_CODE":"US"},{"ECCENTRICITY":"0.00010130","GP_ID":"233430659","EPOCH":"2023-06-07T19:26:08.155968","BSTAR":"0.00158160000000","INCLINATION":"53.0529","PERIAPSIS":"546.389","MEAN_ANOMALY":"287.9990","REV_AT_EPOCH":"12839","MEAN_MOTION":"15.06440050","FILE":"3927436","RCS_SIZE":"LARGE","APOAPSIS":"547.792","MEAN_MOTION_DOT":"0.00023380","DECAY_DATE":null,"MEAN_ELEMENT_THEORY":"SGP4","OBJECT_ID":"2021-012AQ","TIME_SYSTEM":"UTC","SITE":"AFETR","EPHEMERIS_TYPE":"0","OBJECT_TYPE":"PAYLOAD","REF_FRAME":"TEME","NORAD_CAT_ID":"47658","OBJECT_NAME":"STARLINK-2042","TLE_LINE2":"2 47658  53.0529 267.1876 0001013  72.1110 287.9990 15.06440050128392","MEAN_MOTION_DDOT":"0.0000000000000","SEMIMAJOR_AXIS":"6925.226","CLASSIFICATION_TYPE":"U","ARG_OF_PERICENTER":"72.1110","LAUNCH_DATE":"2021-02-16","COUNTRY_CODE":"US","TLE_LINE1":"1 47658U 21012AQ  23158.80981662  .00023380  00000-0  15816-2 0  9994","CENTER_NAME":"EARTH","RA_OF_ASC_NODE":"267.1876","ELEMENT_SET_NO":"999","PERIOD":"95.590"},{"EPOCH":"2023-06-07T16:52:12.856512","ECCENTRICITY":"0.00010250","GP_ID":"233431411","MEAN_ANOMALY":"287.6641","PERIAPSIS":"546.501","INCLINATION":"53.0539","REV_AT_EPOCH":"13001","BSTAR":"0.00004838300000","APOAPSIS":"547.921","MEAN_MOTION_DOT":"0.00000439","MEAN_MOTION":"15.06400826","RCS_SIZE":"LARGE","FILE":"3927436","MEAN_ELEMENT_THEORY":"SGP4","OBJECT_ID":"2021-012AR","DECAY_DATE":null,"REF_FRAME":"TEME","TIME_SYSTEM":"UTC","SITE":"AFETR","EPHEMERIS_TYPE":"0","OBJECT_TYPE":"PAYLOAD","COUNTRY_CODE":"US","TLE_LINE1":"1 47659U 21012AR  23158.70292658  .00000439  00000-0  48383-4 0  9991","NORAD_CAT_ID":"47659","OBJECT_NAME":"STARLINK-2043","SEMIMAJOR_AXIS":"6925.346","TLE_LINE2":"2 47659  53.0539 147.6701 0001025  72.4460 287.6641 15.06400826130016","MEAN_MOTION_DDOT":"0.0000000000000","CLASSIFICATION_TYPE":"U","LAUNCH_DATE":"2021-02-16","ARG_OF_PERICENTER":"72.4460","RA_OF_ASC_NODE":"147.6701","ELEMENT_SET_NO":"999","PERIOD":"95.592","CENTER_NAME":"EARTH"},{"MEAN_MOTION_DOT":"0.00000161","APOAPSIS":"548.157","MEAN_MOTION":"15.06400228","FILE":"3927436","RCS_SIZE":"LARGE","MEAN_ELEMENT_THEORY":"SGP4","OBJECT_ID":"2021-012AS","DECAY_DATE":null,"EPOCH":"2023-06-07T22:06:48.188448","ECCENTRICITY":"0.00013640","GP_ID":"233431162","REV_AT_EPOCH":"13018","PERIAPSIS":"546.268","INCLINATION":"53.0555","MEAN_ANOMALY":"275.0624","BSTAR":"0.00002970500000","ELEMENT_SET_NO":"999","PERIOD":"95.592","RA_OF_ASC_NODE":"137.3156","CENTER_NAME":"EARTH","REF_FRAME":"TEME","TIME_SYSTEM":"UTC","SITE":"AFETR","EPHEMERIS_TYPE":"0","OBJECT_TYPE":"PAYLOAD","COUNTRY_CODE":"US","TLE_LINE1":"1 47660U 21012AS  23158.92139107  .00000161  00000-0  29705-4 0  9995","OBJECT_NAME":"STARLINK-2044","NORAD_CAT_ID":"47660","LAUNCH_DATE":"2021-02-16","ARG_OF_PERICENTER":"85.0520","TLE_LINE2":"2 47660  53.0555 137.3156 0001364  85.0520 275.0624 15.06400228130185","MEAN_MOTION_DDOT":"0.0000000000000","SEMIMAJOR_AXIS":"6925.348","CLASSIFICATION_TYPE":"U"},{"REV_AT_EPOCH":"12863","PERIAPSIS":"546.305","INCLINATION":"53.0525","MEAN_ANOMALY":"289.7897","BSTAR":"0.00154100000000","EPOCH":"2023-06-07T18:35:42.732960","GP_ID":"233430410","ECCENTRICITY":"0.00011210","OBJECT_ID":"2021-012AT","MEAN_ELEMENT_THEORY":"SGP4","DECAY_DATE":null,"MEAN_MOTION_DOT":"0.00022773","APOAPSIS":"547.857","FILE":"3927436","RCS_SIZE":"LARGE","MEAN_MOTION":"15.06443225","TLE_LINE1":"1 47661U 21012AT  23158.77480015  .00022773  00000-0  15410-2 0  9995","COUNTRY_CODE":"US","ARG_OF_PERICENTER":"70.3213","LAUNCH_DATE":"2021-02-16","TLE_LINE2":"2 47661  53.0525 247.3461 0001121  70.3213 289.7897 15.06443225128636","SEMIMAJOR_AXIS":"6925.216","MEAN_MOTION_DDOT":"0.0000000000000","CLASSIFICATION_TYPE":"U","NORAD_CAT_ID":"47661","OBJECT_NAME":"STARLINK-2051","REF_FRAME":"TEME","EPHEMERIS_TYPE":"0","OBJECT_TYPE":"PAYLOAD","TIME_SYSTEM":"UTC","SITE":"AFETR","PERIOD":"95.589","ELEMENT_SET_NO":"999","RA_OF_ASC_NODE":"247.3461","CENTER_NAME":"EARTH"},{"RA_OF_ASC_NODE":"248.9199","PERIOD":"95.590","ELEMENT_SET_NO":"999","CENTER_NAME":"EARTH","COUNTRY_CODE":"US","TLE_LINE1":"1 47662U 21012AU  23158.42370193  .00019804  00000-0  13437-2 0  9991","OBJECT_NAME":"STARLINK-2052","NORAD_CAT_ID":"47662","SEMIMAJOR_AXIS":"6925.267","TLE_LINE2":"2 47662  53.0525 248.9199 0000985  69.1480 290.9615 15.06426574128608","CLASSIFICATION_TYPE":"U","MEAN_MOTION_DDOT":"0.0000000000000","ARG_OF_PERICENTER":"69.1480","LAUNCH_DATE":"2021-02-16","REF_FRAME":"TEME","SITE":"AFETR","TIME_SYSTEM":"UTC","EPHEMERIS_TYPE":"0","OBJECT_TYPE":"PAYLOAD","MEAN_ELEMENT_THEORY":"SGP4","OBJECT_ID":"2021-012AU","DECAY_DATE":null,"APOAPSIS":"547.814","MEAN_MOTION_DOT":"0.00019804","MEAN_MOTION":"15.06426574","FILE":"3927174","RCS_SIZE":"LARGE","MEAN_ANOMALY":"290.9615","PERIAPSIS":"546.450","INCLINATION":"53.0525","REV_AT_EPOCH":"12860","BSTAR":"0.00134370000000","EPOCH":"2023-06-07T10:10:07.846752","ECCENTRICITY":"0.00009850","GP_ID":"233398448"}];
